KUIPER-00112            
1 65150U 25171U   25240.57803315  .00019959  00000+0  58532-3 0  9996
2 65150  51.8776 322.5074 0005318 217.8426 142.2187 15.35160950  3860
KUIPER-00114            
1 65151U 25171V   25240.57669805  .00023864  00000+0  69608-3 0  9997
2 65151  51.8772 322.4972 0004902 207.7045 152.3680 15.35218703  3866
KUIPER-00115            
1 65152U 25171W   25240.57209045  .00022900  00000+0  65866-3 0  9996
2 65152  51.8773 322.4648 0005504 187.7556 172.3346 15.35681130  3860
KUIPER-00116            
1 65153U 25171X   25240.57503298  .00022452  00000+0  65122-3 0  9991
2 65153  51.8781 322.4904 0004997 204.6768 155.3979 15.35432304  3864
KUIPER-00118            
1 65154U 25171Y   25240.57710689  .00023232  00000+0  67694-3 0  9999
2 65154  51.8775 322.5013 0004620 211.8067 148.2641 15.35268645  3867
KUIPER-00119            
1 65155U 25171Z   25240.56995268  .00023356  00000+0  66744-3 0  9999
2 65155  51.8775 322.4520 0005567 186.6199 173.4714 15.35872603  3862
