<?xml version="1.0" encoding="UTF-8"?>
<ndm xmlns:xsi="http://www.w3.org/2001/XMLSchema-instance" xsi:noNamespaceSchemaLocation="https://sanaregistry.org/r/ndmxml_unqualified/ndmxml-2.0.0-master-2.0.xsd">
<omm id="CCSDS_OMM_VERS" version="2.0">
<header><CREATION_DATE/><ORIGINATOR/></header><body><segment><metadata><OBJECT_NAME>KUIPER-00112</OBJECT_NAME><OBJECT_ID>2025-171U</OBJECT_ID><CENTER_NAME>EARTH</CENTER_NAME><REF_FRAME>TEME</REF_FRAME><TIME_SYSTEM>UTC</TIME_SYSTEM><MEAN_ELEMENT_THEORY>SGP4</MEAN_ELEMENT_THEORY></metadata><data><meanElements><EPOCH>2025-08-28T13:52:22.064160</EPOCH><MEAN_MOTION>15.35160950</MEAN_MOTION><ECCENTRICITY>.0005318</ECCENTRICITY><INCLINATION>51.8776</INCLINATION><RA_OF_ASC_NODE>322.5074</RA_OF_ASC_NODE><ARG_OF_PERICENTER>217.8426</ARG_OF_PERICENTER><MEAN_ANOMALY>142.2187</MEAN_ANOMALY></meanElements><tleParameters><EPHEMERIS_TYPE>0</EPHEMERIS_TYPE><CLASSIFICATION_TYPE>U</CLASSIFICATION_TYPE><NORAD_CAT_ID>65150</NORAD_CAT_ID><ELEMENT_SET_NO>999</ELEMENT_SET_NO><REV_AT_EPOCH>386</REV_AT_EPOCH><BSTAR>.58531678E-3</BSTAR><MEAN_MOTION_DOT>.19959E-3</MEAN_MOTION_DOT><MEAN_MOTION_DDOT>0</MEAN_MOTION_DDOT></tleParameters></data></segment></body></omm>
<omm id="CCSDS_OMM_VERS" version="2.0">
<header><CREATION_DATE/><ORIGINATOR/></header><body><segment><metadata><OBJECT_NAME>KUIPER-00114</OBJECT_NAME><OBJECT_ID>2025-171V</OBJECT_ID><CENTER_NAME>EARTH</CENTER_NAME><REF_FRAME>TEME</REF_FRAME><TIME_SYSTEM>UTC</TIME_SYSTEM><MEAN_ELEMENT_THEORY>SGP4</MEAN_ELEMENT_THEORY></metadata><data><meanElements><EPOCH>2025-08-28T13:50:26.711520</EPOCH><MEAN_MOTION>15.35218703</MEAN_MOTION><ECCENTRICITY>.00049028</ECCENTRICITY><INCLINATION>51.8772</INCLINATION><RA_OF_ASC_NODE>322.4972</RA_OF_ASC_NODE><ARG_OF_PERICENTER>207.7045</ARG_OF_PERICENTER><MEAN_ANOMALY>152.3680</MEAN_ANOMALY></meanElements><tleParameters><EPHEMERIS_TYPE>0</EPHEMERIS_TYPE><CLASSIFICATION_TYPE>U</CLASSIFICATION_TYPE><NORAD_CAT_ID>65151</NORAD_CAT_ID><ELEMENT_SET_NO>999</ELEMENT_SET_NO><REV_AT_EPOCH>386</REV_AT_EPOCH><BSTAR>.69607947E-3</BSTAR><MEAN_MOTION_DOT>.23864E-3</MEAN_MOTION_DOT><MEAN_MOTION_DDOT>0</MEAN_MOTION_DDOT></tleParameters></data></segment></body></omm>
<omm id="CCSDS_OMM_VERS" version="2.0">
<header><CREATION_DATE/><ORIGINATOR/></header><body><segment><metadata><OBJECT_NAME>KUIPER-00115</OBJECT_NAME><OBJECT_ID>2025-171W</OBJECT_ID><CENTER_NAME>EARTH</CENTER_NAME><REF_FRAME>TEME</REF_FRAME><TIME_SYSTEM>UTC</TIME_SYSTEM><MEAN_ELEMENT_THEORY>SGP4</MEAN_ELEMENT_THEORY></metadata><data><meanElements><EPOCH>2025-08-28T13:43:48.614880</EPOCH><MEAN_MOTION>15.35681130</MEAN_MOTION><ECCENTRICITY>.00055046</ECCENTRICITY><INCLINATION>51.8773</INCLINATION><RA_OF_ASC_NODE>322.4648</RA_OF_ASC_NODE><ARG_OF_PERICENTER>187.7556</ARG_OF_PERICENTER><MEAN_ANOMALY>172.3346</MEAN_ANOMALY></meanElements><tleParameters><EPHEMERIS_TYPE>0</EPHEMERIS_TYPE><CLASSIFICATION_TYPE>U</CLASSIFICATION_TYPE><NORAD_CAT_ID>65152</NORAD_CAT_ID><ELEMENT_SET_NO>999</ELEMENT_SET_NO><REV_AT_EPOCH>386</REV_AT_EPOCH><BSTAR>.65866483E-3</BSTAR><MEAN_MOTION_DOT>.229E-3</MEAN_MOTION_DOT><MEAN_MOTION_DDOT>0</MEAN_MOTION_DDOT></tleParameters></data></segment></body></omm>
<omm id="CCSDS_OMM_VERS" version="2.0">
<header><CREATION_DATE/><ORIGINATOR/></header><body><segment><metadata><OBJECT_NAME>KUIPER-00116</OBJECT_NAME><OBJECT_ID>2025-171X</OBJECT_ID><CENTER_NAME>EARTH</CENTER_NAME><REF_FRAME>TEME</REF_FRAME><TIME_SYSTEM>UTC</TIME_SYSTEM><MEAN_ELEMENT_THEORY>SGP4</MEAN_ELEMENT_THEORY></metadata><data><meanElements><EPOCH>2025-08-28T13:48:02.849472</EPOCH><MEAN_MOTION>15.35432304</MEAN_MOTION><ECCENTRICITY>.00049973</ECCENTRICITY><INCLINATION>51.8781</INCLINATION><RA_OF_ASC_NODE>322.4904</RA_OF_ASC_NODE><ARG_OF_PERICENTER>204.6768</ARG_OF_PERICENTER><MEAN_ANOMALY>155.3979</MEAN_ANOMALY></meanElements><tleParameters><EPHEMERIS_TYPE>0</EPHEMERIS_TYPE><CLASSIFICATION_TYPE>U</CLASSIFICATION_TYPE><NORAD_CAT_ID>65153</NORAD_CAT_ID><ELEMENT_SET_NO>999</ELEMENT_SET_NO><REV_AT_EPOCH>386</REV_AT_EPOCH><BSTAR>.6512241E-3</BSTAR><MEAN_MOTION_DOT>.22452E-3</MEAN_MOTION_DOT><MEAN_MOTION_DDOT>0</MEAN_MOTION_DDOT></tleParameters></data></segment></body></omm>
<omm id="CCSDS_OMM_VERS" version="2.0">
<header><CREATION_DATE/><ORIGINATOR/></header><body><segment><metadata><OBJECT_NAME>KUIPER-00118</OBJECT_NAME><OBJECT_ID>2025-171Y</OBJECT_ID><CENTER_NAME>EARTH</CENTER_NAME><REF_FRAME>TEME</REF_FRAME><TIME_SYSTEM>UTC</TIME_SYSTEM><MEAN_ELEMENT_THEORY>SGP4</MEAN_ELEMENT_THEORY></metadata><data><meanElements><EPOCH>2025-08-28T13:51:02.035296</EPOCH><MEAN_MOTION>15.35268645</MEAN_MOTION><ECCENTRICITY>.00046205</ECCENTRICITY><INCLINATION>51.8775</INCLINATION><RA_OF_ASC_NODE>322.5013</RA_OF_ASC_NODE><ARG_OF_PERICENTER>211.8067</ARG_OF_PERICENTER><MEAN_ANOMALY>148.2641</MEAN_ANOMALY></meanElements><tleParameters><EPHEMERIS_TYPE>0</EPHEMERIS_TYPE><CLASSIFICATION_TYPE>U</CLASSIFICATION_TYPE><NORAD_CAT_ID>65154</NORAD_CAT_ID><ELEMENT_SET_NO>999</ELEMENT_SET_NO><REV_AT_EPOCH>386</REV_AT_EPOCH><BSTAR>.67693723E-3</BSTAR><MEAN_MOTION_DOT>.23232E-3</MEAN_MOTION_DOT><MEAN_MOTION_DDOT>0</MEAN_MOTION_DDOT></tleParameters></data></segment></body></omm>
<omm id="CCSDS_OMM_VERS" version="2.0">
<header><CREATION_DATE/><ORIGINATOR/></header><body><segment><metadata><OBJECT_NAME>KUIPER-00119</OBJECT_NAME><OBJECT_ID>2025-171Z</OBJECT_ID><CENTER_NAME>EARTH</CENTER_NAME><REF_FRAME>TEME</REF_FRAME><TIME_SYSTEM>UTC</TIME_SYSTEM><MEAN_ELEMENT_THEORY>SGP4</MEAN_ELEMENT_THEORY></metadata><data><meanElements><EPOCH>2025-08-28T13:40:43.911552</EPOCH><MEAN_MOTION>15.35872603</MEAN_MOTION><ECCENTRICITY>.00055673</ECCENTRICITY><INCLINATION>51.8775</INCLINATION><RA_OF_ASC_NODE>322.4520</RA_OF_ASC_NODE><ARG_OF_PERICENTER>186.6199</ARG_OF_PERICENTER><MEAN_ANOMALY>173.4714</MEAN_ANOMALY></meanElements><tleParameters><EPHEMERIS_TYPE>0</EPHEMERIS_TYPE><CLASSIFICATION_TYPE>U</CLASSIFICATION_TYPE><NORAD_CAT_ID>65155</NORAD_CAT_ID><ELEMENT_SET_NO>999</ELEMENT_SET_NO><REV_AT_EPOCH>386</REV_AT_EPOCH><BSTAR>.66743826E-3</BSTAR><MEAN_MOTION_DOT>.23356E-3</MEAN_MOTION_DOT><MEAN_MOTION_DDOT>0</MEAN_MOTION_DDOT></tleParameters></data></segment></body></omm>
</ndm>
